EUTELSAT QUANTUM        
1 49056U 21069B   25210.92753258  .00000127  00000+0  00000+0 0  9991
2 49056   0.0342 270.6297 0001957 228.7043 190.0614  1.00272277 14695
EUTELSAT KONNECT VHTS   
1 53765U 22110A   25210.33580847  .00000016  00000+0  00000+0 0  9995
2 53765   0.0543  96.8271 0002556  31.9309 302.0950  1.00270776  3581
EUTELSAT HOTBIRD 13F    
1 54048U 22134A   25210.89905733  .00000088  00000+0  00000+0 0  9991
2 54048   0.0648 280.4757 0001886  84.4915 279.4816  1.00272721 10200
EUTELSAT HOTBIRD 13G    
1 54225U 22146A   25210.89905733  .00000088  00000+0  00000+0 0  9991
2 54225   0.0528 246.0472 0002193 292.3281 106.0433  1.00272767  4230
EUTELSAT 10B            
1 54259U 22157A   25210.89905733  .00000069  00000+0  00000+0 0  9999
2 54259   0.0490  93.6085 0001655  52.9146 134.8859  1.00272309  9781
EUTELSAT 36D            
1 59346U 24059A   25211.12759508  .00000157  00000+0  00000+0 0  9996
2 59346   0.0229  83.0413 0000330  69.7621 237.0012  1.00269780  4910
